*******************************************************************************
Ephemeris / WWW_USER Mon Mar 24 07:27:10 2025 Pasadena, USA      / Horizons    
*******************************************************************************
Target body name: (2018 PK21)                     {source: JPL#33}
Center body name: Earth (399)                     {source: DE441}
Center-site name: Mauna Kea
*******************************************************************************
Start time      : A.D. 2019-Jan-05 04:06:00.0000 UT      
Stop  time      : A.D. 2019-Jan-05 16:47:00.0000 UT      
Step-size       : 1 minutes
*******************************************************************************
Target pole/equ : undefined
Target radii    : undefined                                                    
Center geodetic : 204.5278, 19.8260847, 4.21024   {E-lon(deg),Lat(deg),Alt(km)}
Center cylindric: 204.5278, 6006.35451, 2151.0229 {E-lon(deg),Dxy(km),Dz(km)}
Center pole/equ : ITRF93                          {East-longitude positive}
Center radii    : 6378.137, 6378.137, 6356.752 km {Equator_a, b, pole_c}       
Target primary  : Sun
Vis. interferer : MOON (R_eq= 1737.400) km        {source: DE441}
Rel. light bend : Sun                             {source: DE441}
Rel. lght bnd GM: 1.3271E+11 km^3/s^2                                          
Small-body perts: Yes                             {source: SB441-N16}
Atmos refraction: NO (AIRLESS)
RA format       : HMS
Time format     : CAL 
Calendar mode   : Mixed Julian/Gregorian
RTS-only print  : NO       
EOP file        : eop.250321.p250617                                           
EOP coverage    : DATA-BASED 1962-JAN-20 TO 2025-MAR-21. PREDICTS-> 2025-JUN-16
Units conversion: 1 au= 149597870.700 km, c= 299792.458 km/s, 1 day= 86400.0 s 
Table cut-offs 1: Elevation (-90.0deg=NO ),Airmass (>38.000=NO), Daylight (YES)
Table cut-offs 2: Solar elongation (  0.0,180.0=NO ),Local Hour Angle( 0.0=NO )
Table cut-offs 3: RA/DEC angular rate (     0.0=NO )                           
*******************************************************************************
Initial IAU76/J2000 heliocentric ecliptic osculating elements (au, days, deg.):
  EPOCH=  2458678.5 ! 2019-Jul-14.00 (TDB)         Residual RMS= .18538        
   EC= .08059571149071894  QR= .9080173735553244   TP= 2458556.3979336754      
   OM= 305.3714803879685   W=  224.0867446587677   IN= 1.196977749955446       
  Equivalent ICRF heliocentric cartesian coordinates (au, au/d):
   X= 5.084898226316541E-01  Y=-8.259633024476691E-01  Z=-3.605371187528673E-01
  VX= 1.486595997640644E-02 VY= 6.429710771461657E-03 VZ= 3.158008025433540E-03
Asteroid physical parameters (km, seconds, rotational period in hours):        
   GM= n.a.                RAD= n.a.               ROTPER= n.a.                
   H= 25.88                G= .150                 B-V= n.a.                   
                           ALBEDO= n.a.            STYP= n.a.                  
*******************************************************************************
 Date__(UT)__HR:MN     R.A._________(ICRF)_________DEC
******************************************************
$$SOE
 2019-Jan-05 14:21     00 06 54.166750 +04 11 15.75690
 2019-Jan-05 14:22     00 06 54.279481 +04 11 16.17155
 2019-Jan-05 14:23     00 06 54.392226 +04 11 16.58625
 2019-Jan-05 14:24     00 06 54.504988 +04 11 17.00101
 2019-Jan-05 14:25     00 06 54.617764 +04 11 17.41582
 2019-Jan-05 14:26     00 06 54.730556 +04 11 17.83069
 2019-Jan-05 14:27     00 06 54.843362 +04 11 18.24561
 2019-Jan-05 14:28     00 06 54.956183 +04 11 18.66059
 2019-Jan-05 14:29     00 06 55.069018 +04 11 19.07562
 2019-Jan-05 14:30     00 06 55.181867 +04 11 19.49071
 2019-Jan-05 14:31     00 06 55.294730 +04 11 19.90585
 2019-Jan-05 14:32     00 06 55.407607 +04 11 20.32105
 2019-Jan-05 14:33     00 06 55.520497 +04 11 20.73630
 2019-Jan-05 14:34     00 06 55.633401 +04 11 21.15161
 2019-Jan-05 14:35     00 06 55.746317 +04 11 21.56697
 2019-Jan-05 14:36     00 06 55.859246 +04 11 21.98239
 2019-Jan-05 14:37     00 06 55.972188 +04 11 22.39787
 2019-Jan-05 14:38     00 06 56.085142 +04 11 22.81340
 2019-Jan-05 14:39     00 06 56.198107 +04 11 23.22898
 2019-Jan-05 14:40     00 06 56.311085 +04 11 23.64462
 2019-Jan-05 14:41     00 06 56.424075 +04 11 24.06032
 2019-Jan-05 14:42     00 06 56.537075 +04 11 24.47607
 2019-Jan-05 14:43     00 06 56.650087 +04 11 24.89188
 2019-Jan-05 14:44     00 06 56.763110 +04 11 25.30775
 2019-Jan-05 14:45     00 06 56.876143 +04 11 25.72367
 2019-Jan-05 14:46     00 06 56.989187 +04 11 26.13964
 2019-Jan-05 14:47     00 06 57.102242 +04 11 26.55568
 2019-Jan-05 14:48     00 06 57.215306 +04 11 26.97177
 2019-Jan-05 14:49     00 06 57.328380 +04 11 27.38791
 2019-Jan-05 14:50     00 06 57.441463 +04 11 27.80411
 2019-Jan-05 14:51     00 06 57.554556 +04 11 28.22037
 2019-Jan-05 14:52     00 06 57.667658 +04 11 28.63669
 2019-Jan-05 14:53     00 06 57.780768 +04 11 29.05306
 2019-Jan-05 14:54     00 06 57.893887 +04 11 29.46949
 2019-Jan-05 14:55     00 06 58.007015 +04 11 29.88597
 2019-Jan-05 14:56     00 06 58.120151 +04 11 30.30251
 2019-Jan-05 14:57     00 06 58.233295 +04 11 30.71911
 2019-Jan-05 14:58     00 06 58.346446 +04 11 31.13576
 2019-Jan-05 14:59     00 06 58.459605 +04 11 31.55247
 2019-Jan-05 15:00     00 06 58.572771 +04 11 31.96924
 2019-Jan-05 15:01     00 06 58.685944 +04 11 32.38606
 2019-Jan-05 15:02     00 06 58.799124 +04 11 32.80294
 2019-Jan-05 15:03     00 06 58.912310 +04 11 33.21988
 2019-Jan-05 15:04     00 06 59.025502 +04 11 33.63688
 2019-Jan-05 15:05     00 06 59.138701 +04 11 34.05393
 2019-Jan-05 15:06     00 06 59.251905 +04 11 34.47104
 2019-Jan-05 15:07     00 06 59.365116 +04 11 34.88820
 2019-Jan-05 15:08     00 06 59.478331 +04 11 35.30543
 2019-Jan-05 15:09     00 06 59.591551 +04 11 35.72271
 2019-Jan-05 15:10     00 06 59.704777 +04 11 36.14004
 2019-Jan-05 15:11     00 06 59.818007 +04 11 36.55744
 2019-Jan-05 15:12     00 06 59.931241 +04 11 36.97489
 2019-Jan-05 15:13     00 07 00.044480 +04 11 37.39240
 2019-Jan-05 15:14     00 07 00.157723 +04 11 37.80996
 2019-Jan-05 15:15     00 07 00.270969 +04 11 38.22759
 2019-Jan-05 15:16     00 07 00.384219 +04 11 38.64527
 2019-Jan-05 15:17     00 07 00.497472 +04 11 39.06300
 2019-Jan-05 15:18     00 07 00.610728 +04 11 39.48080
 2019-Jan-05 15:19     00 07 00.723987 +04 11 39.89865
 2019-Jan-05 15:20     00 07 00.837249 +04 11 40.31656
 2019-Jan-05 15:21     00 07 00.950512 +04 11 40.73453
 2019-Jan-05 15:22     00 07 01.063778 +04 11 41.15255
 2019-Jan-05 15:23     00 07 01.177046 +04 11 41.57063
 2019-Jan-05 15:24     00 07 01.290315 +04 11 41.98877
 2019-Jan-05 15:25     00 07 01.403586 +04 11 42.40697
 2019-Jan-05 15:26     00 07 01.516858 +04 11 42.82522
 2019-Jan-05 15:27     00 07 01.630131 +04 11 43.24353
 2019-Jan-05 15:28     00 07 01.743404 +04 11 43.66190
 2019-Jan-05 15:29     00 07 01.856678 +04 11 44.08033
 2019-Jan-05 15:30     00 07 01.969952 +04 11 44.49881
 2019-Jan-05 15:31     00 07 02.083226 +04 11 44.91735
 2019-Jan-05 15:32     00 07 02.196500 +04 11 45.33595
 2019-Jan-05 15:33     00 07 02.309773 +04 11 45.75461
 2019-Jan-05 15:34     00 07 02.423046 +04 11 46.17332
 2019-Jan-05 15:35     00 07 02.536317 +04 11 46.59209
 2019-Jan-05 15:36     00 07 02.649588 +04 11 47.01092
 2019-Jan-05 15:37     00 07 02.762857 +04 11 47.42981
 2019-Jan-05 15:38     00 07 02.876124 +04 11 47.84875
 2019-Jan-05 15:39     00 07 02.989390 +04 11 48.26775
 2019-Jan-05 15:40 A   00 07 03.102653 +04 11 48.68681
 2019-Jan-05 15:41 A   00 07 03.215914 +04 11 49.10592
 2019-Jan-05 15:42 A   00 07 03.329172 +04 11 49.52510
 2019-Jan-05 15:43 A   00 07 03.442428 +04 11 49.94433
 2019-Jan-05 15:44 A   00 07 03.555680 +04 11 50.36362
 2019-Jan-05 15:45 A   00 07 03.668929 +04 11 50.78296
 2019-Jan-05 15:46 A   00 07 03.782175 +04 11 51.20236
 2019-Jan-05 15:47 A   00 07 03.895417 +04 11 51.62182
 2019-Jan-05 15:48 A   00 07 04.008654 +04 11 52.04134
 2019-Jan-05 15:49 A   00 07 04.121888 +04 11 52.46092
 2019-Jan-05 15:50 A   00 07 04.235117 +04 11 52.88055
 2019-Jan-05 15:51 A   00 07 04.348341 +04 11 53.30024
 2019-Jan-05 15:52 A   00 07 04.461561 +04 11 53.71999
 2019-Jan-05 15:53 A   00 07 04.574775 +04 11 54.13979
 2019-Jan-05 15:54 A   00 07 04.687984 +04 11 54.55965
 2019-Jan-05 15:55 A   00 07 04.801187 +04 11 54.97957
 2019-Jan-05 15:56 A   00 07 04.914385 +04 11 55.39955
 2019-Jan-05 15:57 A   00 07 05.027576 +04 11 55.81958
 2019-Jan-05 15:58 A   00 07 05.140761 +04 11 56.23967
 2019-Jan-05 15:59 A   00 07 05.253939 +04 11 56.65982
 2019-Jan-05 16:00 A   00 07 05.367111 +04 11 57.08002
 2019-Jan-05 16:01 A   00 07 05.480275 +04 11 57.50028
 2019-Jan-05 16:02 A   00 07 05.593432 +04 11 57.92060
 2019-Jan-05 16:03 A   00 07 05.706582 +04 11 58.34098
 2019-Jan-05 16:04 A   00 07 05.819724 +04 11 58.76141
 2019-Jan-05 16:05 A   00 07 05.932858 +04 11 59.18190
 2019-Jan-05 16:06 A   00 07 06.045984 +04 11 59.60245
 2019-Jan-05 16:07 N   00 07 06.159101 +04 12 00.02305
 2019-Jan-05 16:08 N   00 07 06.272210 +04 12 00.44371
 2019-Jan-05 16:09 N   00 07 06.385310 +04 12 00.86443
 2019-Jan-05 16:10 N   00 07 06.498400 +04 12 01.28520
 2019-Jan-05 16:11 N   00 07 06.611482 +04 12 01.70603
 2019-Jan-05 16:12 N   00 07 06.724553 +04 12 02.12692
 2019-Jan-05 16:13 N   00 07 06.837615 +04 12 02.54787
 2019-Jan-05 16:14 N   00 07 06.950667 +04 12 02.96887
 2019-Jan-05 16:15 N   00 07 07.063709 +04 12 03.38992
 2019-Jan-05 16:16 N   00 07 07.176740 +04 12 03.81104
 2019-Jan-05 16:17 N   00 07 07.289760 +04 12 04.23221
 2019-Jan-05 16:18 N   00 07 07.402770 +04 12 04.65343
 2019-Jan-05 16:19 N   00 07 07.515768 +04 12 05.07472
 2019-Jan-05 16:20 N   00 07 07.628755 +04 12 05.49606
 2019-Jan-05 16:21 N   00 07 07.741730 +04 12 05.91745
 2019-Jan-05 16:22 N   00 07 07.854693 +04 12 06.33891
 2019-Jan-05 16:23 N   00 07 07.967644 +04 12 06.76041
